OBJECT_NAME,OBJECT_ID,EPOCH,MEAN_MOTION,ECCENTRICITY,INCLINATION,RA_OF_ASC_NODE,ARG_OF_PERICENTER,MEAN_ANOMALY,EPHEMERIS_TYPE,CLASSIFICATION_TYPE,NORAD_CAT_ID,ELEMENT_SET_NO,REV_AT_EPOCH,BSTAR,MEAN_MOTION_DOT,MEAN_MOTION_DDOT
KUIPER-00157,2025-228Z,2026-03-01T01:49:04.247904,14.79922113,.0000571,51.9032,16.3052,38.7335,321.3668,0,U,65970,999,2226,.22548628E-3,.1498E-4,0
KUIPER-00144,2025-301A,2026-03-01T11:13:06.949056,15.38048441,.0007418,51.8683,104.8730,3.1795,356.9238,0,U,67133,999,1247,.867E-3,.32746E-3,0
KUIPER-00164,2025-301B,2026-03-01T12:00:02.998944,15.18924396,.0004175,51.8798,105.6374,33.7381,19.3178,0,U,67134,999,589,.16996E-2,.35818E-3,0
KUIPER-00175,2025-301C,2026-03-01T12:00:02.998944,15.32615365,.0001801,51.8760,104.2959,356.8475,41.8204,0,U,67135,999,537,-.69392E-1,-.2007328E-1,0
KUIPER-00179,2025-301D,2026-03-01T12:00:02.998944,15.21628727,.0002501,51.8799,105.0348,26.0737,15.1468,0,U,67136,999,582,-.51382E-1,-.1076089E-1,0
KUIPER-00181,2025-301E,2026-03-01T12:00:02.998944,14.80181739,.0002344,51.9016,113.1544,92.6041,104.1305,0,U,67137,999,578,-.88274E-3,-.6985E-4,0
KUIPER-00183,2025-301F,2026-03-01T12:00:02.998944,15.33881194,.0014601,51.8629,105.3461,20.6940,175.7098,0,U,67138,999,572,-.31279E-1,-.955986E-2,0
KUIPER-00184,2025-301G,2026-03-01T09:14:29.920992,15.36985985,.0012201,51.8623,105.7588,21.1040,339.0448,0,U,67139,999,1273,.52117E-3,.18847E-3,0
KUIPER-00186,2025-301H,2026-03-01T12:00:02.998944,14.80085860,.0001028,51.9009,114.3279,95.1844,41.2015,0,U,67140,999,548,-.10112E-2,-.795E-4,0
KUIPER-00187,2025-301J,2026-03-01T12:00:02.998944,14.79944474,.0000771,51.9021,116.8393,80.3268,70.7092,0,U,67141,999,504,.14577E-2,.10913E-3,0
KUIPER-00188,2025-301K,2026-03-01T10:10:53.724288,15.37695433,.0009987,51.8690,105.3227,15.9434,344.1866,0,U,67142,999,1246,.77973E-3,.29077E-3,0
KUIPER-00191,2025-301L,2026-03-01T12:00:02.998944,14.87715871,.0008229,51.8985,109.6160,31.5623,133.0573,0,U,67143,999,431,.61218E-3,.5403E-4,0
KUIPER-00196,2025-301M,2026-03-01T09:10:12.233856,15.38453318,.0003774,51.8717,105.0690,351.5740,8.5183,0,U,67144,999,1246,.10795E-2,.41437E-3,0
KUIPER-00204,2025-301N,2026-03-01T09:47:07.276704,15.25864313,.0002834,51.8825,109.6057,317.9174,42.1589,0,U,67145,999,1251,.68333E-3,.17443E-3,0
KUIPER-00210,2025-301P,2026-03-01T12:00:02.998944,14.90498817,.0011654,51.8957,109.6446,41.9898,253.5783,0,U,67146,999,582,-.30852E-2,-.30582E-3,0
KUIPER-00221,2025-301Q,2026-03-01T08:53:24.476352,14.79893969,.0000499,51.9016,117.3947,114.5858,245.5156,0,U,67147,999,1229,.58478E-3,.4236E-4,0
KUIPER-00232,2025-301R,2026-03-01T12:00:02.998944,15.20630479,.0002556,51.8805,104.9014,132.5883,287.8388,0,U,67148,999,470,-.70639E-1,-.1440748E-1,0
KUIPER-00241,2025-301S,2026-03-01T12:00:02.998944,14.81274187,.000165,51.9016,111.8428,142.2018,152.7839,0,U,67149,999,587,-.45656E-3,-.3816E-4,0
KUIPER-00245,2025-301T,2026-03-01T03:57:45.293184,14.79942496,.00003891,51.9029,120.8229,72.0759,288.0246,0,U,67150,999,1222,.59447784E-3,.4315E-4,0
KUIPER-00246,2025-301U,2026-03-01T12:00:02.998944,15.10444390,.0005119,51.8903,106.0415,35.4534,236.9222,0,U,67151,999,542,.14437E-2,.23823E-3,0
KUIPER-00247,2025-301V,2026-03-01T08:23:33.312768,15.36498068,.0014334,51.8627,106.2653,27.5444,332.6298,0,U,67152,999,1244,.11684E-2,.42242E-3,0
KUIPER-00248,2025-301W,2026-03-01T09:12:43.717248,15.37077120,.0011133,51.8671,105.7847,14.3610,345.7691,0,U,67153,999,1262,.51405E-3,.18632E-3,0
KUIPER-00249,2025-301X,2026-03-01T10:09:56.081664,15.37746250,.0010449,51.8642,105.2931,14.7892,345.3398,0,U,67154,999,1246,.11457E-2,.43069E-3,0
KUIPER-00250,2025-301Y,2026-03-01T12:00:02.998944,15.05280089,.0008596,51.8897,107.2347,24.5469,23.3940,0,U,67155,999,561,-.14278E+0,-.1873707E-1,0
KUIPER-00251,2025-301Z,2026-03-01T08:58:43.743360,15.37260054,.0011011,51.8659,105.7128,17.4534,342.6829,0,U,67156,999,1264,.52154E-3,.19023E-3,0
KUIPER-00252,2025-301AA,2026-03-01T09:23:15.302976,15.37023366,.0012381,51.8650,105.8176,22.2205,337.9316,0,U,67157,999,1245,.1283E-2,.47213E-3,0
KUIPER-00261,2025-301AB,2026-03-01T12:00:02.998944,15.03873026,.001092,51.9123,107.4983,27.8602,147.2513,0,U,67158,999,574,-.76203E-1,-.989769E-2,0
KUIPER-00265,2025-301AC,2026-03-01T08:45:35.063424,14.79946025,.0000662,51.9018,122.4234,47.6084,312.4934,0,U,67159,999,1225,.63577E-3,.463E-4,0
KUIPER-00159,2026-030A,2026-03-01T10:22:00.886944,15.35337241,.0003982,51.8830,258.9774,23.8005,336.3164,0,U,67764,999,382,.13779E-2,.47947E-3,0
KUIPER-00160,2026-030B,2026-03-01T11:57:00.528192,15.35246223,.0004318,51.8794,258.6640,33.1199,327.0057,0,U,67765,999,383,.11368E-2,.39331E-3,0
