KUIPER-00157            
1 65970U 25228Z   26060.07574361  .00001498  00000+0  22549-3 0  9999
2 65970  51.9032  16.3052 0000571  38.7335 321.3668 14.79922113 22268
KUIPER-00144            
1 67133U 25301A   26060.46744154  .00032746  00000+0  86700-3 0  9995
2 67133  51.8683 104.8730 0007418   3.1795 356.9238 15.38048441 12479
KUIPER-00164            
1 67134U 25301B   26060.50003471  .00035818  00000+0  16996-2 0  9993
2 67134  51.8798 105.6374 0004175  33.7381  19.3178 15.18924396  5898
KUIPER-00175            
1 67135U 25301C   26060.50003471 -.02007328  00000+0 -69392-1 0  9990
2 67135  51.8760 104.2959 0001801 356.8475  41.8204 15.32615365  5370
KUIPER-00179            
1 67136U 25301D   26060.50003471 -.01076089  00000+0 -51382-1 0  9990
2 67136  51.8799 105.0348 0002501  26.0737  15.1468 15.21628727  5829
KUIPER-00181            
1 67137U 25301E   26060.50003471 -.00006985  00000+0 -88274-3 0  9990
2 67137  51.9016 113.1544 0002344  92.6041 104.1305 14.80181739  5788
KUIPER-00183            
1 67138U 25301F   26060.50003471 -.00955986  00000+0 -31279-1 0  9996
2 67138  51.8629 105.3461 0014601  20.6940 175.7098 15.33881194  5725
KUIPER-00184            
1 67139U 25301G   26060.38506853  .00018847  00000+0  52117-3 0  9995
2 67139  51.8623 105.7588 0012201  21.1040 339.0448 15.36985985 12734
KUIPER-00186            
1 67140U 25301H   26060.50003471 -.00007950  00000+0 -10112-2 0  9992
2 67140  51.9009 114.3279 0001028  95.1844  41.2015 14.80085860  5483
KUIPER-00187            
1 67141U 25301J   26060.50003471  .00010913  00000+0  14577-2 0  9993
2 67141  51.9021 116.8393 0000771  80.3268  70.7092 14.79944474  5049
KUIPER-00188            
1 67142U 25301K   26060.42423292  .00029077  00000+0  77973-3 0  9993
2 67142  51.8690 105.3227 0009987  15.9434 344.1866 15.37695433 12461
KUIPER-00191            
1 67143U 25301L   26060.50003471  .00005403  00000+0  61218-3 0  9998
2 67143  51.8985 109.6160 0008229  31.5623 133.0573 14.87715871  4312
KUIPER-00196            
1 67144U 25301M   26060.38208604  .00041437  00000+0  10795-2 0  9990
2 67144  51.8717 105.0690 0003774 351.5740   8.5183 15.38453318 12469
KUIPER-00204            
1 67145U 25301N   26060.40772311  .00017443  00000+0  68333-3 0  9997
2 67145  51.8825 109.6057 0002834 317.9174  42.1589 15.25864313 12517
KUIPER-00210            
1 67146U 25301P   26060.50003471 -.00030582  00000+0 -30852-2 0  9998
2 67146  51.8957 109.6446 0011654  41.9898 253.5783 14.90498817  5826
KUIPER-00221            
1 67147U 25301Q   26060.37042218  .00004236  00000+0  58478-3 0  9996
2 67147  51.9016 117.3947 0000499 114.5858 245.5156 14.79893969 12292
KUIPER-00232            
1 67148U 25301R   26060.50003471 -.01440748  00000+0 -70639-1 0  9996
2 67148  51.8805 104.9014 0002556 132.5883 287.8388 15.20630479  4704
KUIPER-00241            
1 67149U 25301S   26060.50003471 -.00003816  00000+0 -45656-3 0  9990
2 67149  51.9016 111.8428 0001650 142.2018 152.7839 14.81274187  5874
KUIPER-00245            
1 67150U 25301T   26060.16510756  .00004315  00000+0  59448-3 0  9990
2 67150  51.9029 120.8229 0000389  72.0759 288.0246 14.79942496 12223
KUIPER-00246            
1 67151U 25301U   26060.50003471  .00023823  00000+0  14437-2 0  9993
2 67151  51.8903 106.0415 0005119  35.4534 236.9222 15.10444390  5423
KUIPER-00247            
1 67152U 25301V   26060.34969112  .00042242  00000+0  11684-2 0  9996
2 67152  51.8627 106.2653 0014334  27.5444 332.6298 15.36498068 12440
KUIPER-00248            
1 67153U 25301W   26060.38383932  .00018632  00000+0  51405-3 0  9993
2 67153  51.8671 105.7847 0011133  14.3610 345.7691 15.37077120 12627
KUIPER-00249            
1 67154U 25301X   26060.42356576  .00043069  00000+0  11457-2 0  9997
2 67154  51.8642 105.2931 0010449  14.7892 345.3398 15.37746250 12469
KUIPER-00250            
1 67155U 25301Y   26060.50003471 -.01873707  00000+0 -14278+0 0  9994
2 67155  51.8897 107.2347 0008596  24.5469  23.3940 15.05280089  5617
KUIPER-00251            
1 67156U 25301Z   26060.37411740  .00019023  00000+0  52154-3 0  9991
2 67156  51.8659 105.7128 0011011  17.4534 342.6829 15.37260054 12643
KUIPER-00252            
1 67157U 25301AA  26060.39114934  .00047213  00000+0  12830-2 0  9997
2 67157  51.8650 105.8176 0012381  22.2205 337.9316 15.37023366 12459
KUIPER-00261            
1 67158U 25301AB  26060.50003471 -.00989769  00000+0 -76203-1 0  9990
2 67158  51.9123 107.4983 0010920  27.8602 147.2513 15.03873026  5743
KUIPER-00265            
1 67159U 25301AC  26060.36498916  .00004630  00000+0  63577-3 0  9992
2 67159  51.9018 122.4234 0000662  47.6084 312.4934 14.79946025 12258
KUIPER-00159            
1 67764U 26030A   26060.43195471  .00047947  00000+0  13779-2 0  9998
2 67764  51.8830 258.9774 0003982  23.8005 336.3164 15.35337241  3822
KUIPER-00160            
1 67765U 26030B   26060.49792278  .00039331  00000+0  11368-2 0  9993
2 67765  51.8794 258.6640 0004318  33.1199 327.0057 15.35246223  3831
